{
  "norad_id": 53682,
  "name": "STARLINK-4438",
  "history": [
    {
      "epoch": "2026-03-28T21:53:08.953152Z",
      "apogee_km": 550.7696937433393,
      "perigee_km": 548.2526020652795,
      "latitude_deg": -5.9487687344945136e-05,
      "longitude_deg": 175.49454846314146,
      "height_km": 552.2935814326446,
      "semi_major_axis_km": 6927.64814790431,
      "eccentricity": 0.00018167,
      "inclination_deg": 97.6024,
      "raan_deg": 330.1074,
      "arg_perigee_deg": 77.1527,
      "mean_anomaly_deg": 282.9902,
      "mean_motion_rev_day": 15.05650002
    },
    {
      "epoch": "2026-03-29T04:15:57.134304Z",
      "apogee_km": 550.7447090626465,
      "perigee_km": 548.2881631542023,
      "latitude_deg": 4.966383878958518e-05,
      "longitude_deg": 79.79365987422946,
      "height_km": 552.300111526635,
      "semi_major_axis_km": 6927.653436108424,
      "eccentricity": 0.0001773,
      "inclination_deg": 97.6023,
      "raan_deg": 330.3693,
      "arg_perigee_deg": 76.887,
      "mean_anomaly_deg": 283.2555,
      "mean_motion_rev_day": 15.05648278
    },
    {
      "epoch": "2026-03-30T04:11:27.106656Z",
      "apogee_km": 550.7349116991454,
      "perigee_km": 548.2894515380331,
      "latitude_deg": 3.797664565098537e-05,
      "longitude_deg": 80.9186127244376,
      "height_km": 552.3245363662224,
      "semi_major_axis_km": 6927.649181618589,
      "eccentricity": 0.0001765,
      "inclination_deg": 97.6024,
      "raan_deg": 331.3517,
      "arg_perigee_deg": 78.2027,
      "mean_anomaly_deg": 281.9398,
      "mean_motion_rev_day": 15.05649665
    },
    {
      "epoch": "2026-03-30T05:47:09.131424Z",
      "apogee_km": 550.7367278271686,
      "perigee_km": 548.2896046824408,
      "latitude_deg": -7.172320435601142e-05,
      "longitude_deg": 56.99351955786619,
      "height_km": 552.3243683075328,
      "semi_major_axis_km": 6927.650166254804,
      "eccentricity": 0.00017662,
      "inclination_deg": 97.6024,
      "raan_deg": 331.4172,
      "arg_perigee_deg": 78.155,
      "mean_anomaly_deg": 281.9874,
      "mean_motion_rev_day": 15.05649344
    },
    {
      "epoch": "2026-03-30T13:45:39.288960Z",
      "apogee_km": 550.774728664227,
      "perigee_km": 548.2599901317662,
      "latitude_deg": 4.891319535800701e-05,
      "longitude_deg": -62.63217588049259,
      "height_km": 552.3308533301329,
      "semi_major_axis_km": 6927.654359397996,
      "eccentricity": 0.0001815,
      "inclination_deg": 97.6023,
      "raan_deg": 331.7447,
      "arg_perigee_deg": 78.5893,
      "mean_anomaly_deg": 281.5538,
      "mean_motion_rev_day": 15.05647977
    },
    {
      "epoch": "2026-03-30T21:44:09.002400Z",
      "apogee_km": 550.7559595977,
      "perigee_km": 548.2528642027519,
      "latitude_deg": 4.4737006396797624e-05,
      "longitude_deg": 177.74410071459198,
      "height_km": 552.3185894278912,
      "semi_major_axis_km": 6927.641411900226,
      "eccentricity": 0.00018066,
      "inclination_deg": 97.6027,
      "raan_deg": 332.0723,
      "arg_perigee_deg": 78.567,
      "mean_anomaly_deg": 281.576,
      "mean_motion_rev_day": 15.05652198
    },
    {
      "epoch": "2026-03-31T21:39:39.616704Z",
      "apogee_km": 550.7738724183382,
      "perigee_km": 548.2799134168881,
      "latitude_deg": 1.0164468855126259e-05,
      "longitude_deg": 178.86587523606303,
      "height_km": 552.4149828297108,
      "semi_major_axis_km": 6927.663892917612,
      "eccentricity": 0.00018,
      "inclination_deg": 97.6025,
      "raan_deg": 333.0542,
      "arg_perigee_deg": 81.9711,
      "mean_anomaly_deg": 278.172,
      "mean_motion_rev_day": 15.05644869
    },
    {
      "epoch": "2026-04-01T05:38:09.446784Z",
      "apogee_km": 550.7575064135872,
      "perigee_km": 548.2815619682679,
      "latitude_deg": 1.665695250484203e-05,
      "longitude_deg": 59.24186312689843,
      "height_km": 552.3854854237378,
      "semi_major_axis_km": 6927.656534190927,
      "eccentricity": 0.0001787,
      "inclination_deg": 97.6029,
      "raan_deg": 333.382,
      "arg_perigee_deg": 80.8752,
      "mean_anomaly_deg": 279.2677,
      "mean_motion_rev_day": 15.05647268
    },
    {
      "epoch": "2026-04-02T10:20:45.410496Z",
      "apogee_km": 550.685567309949,
      "perigee_km": 548.3607831083527,
      "latitude_deg": -6.244140198622039e-05,
      "longitude_deg": -11.407351317754168,
      "height_km": 552.3152329305982,
      "semi_major_axis_km": 6927.660175209151,
      "eccentricity": 0.00016779,
      "inclination_deg": 97.6029,
      "raan_deg": 334.5617,
      "arg_perigee_deg": 76.5464,
      "mean_anomaly_deg": 283.5949,
      "mean_motion_rev_day": 15.05646081
    },
    {
      "epoch": "2026-04-03T16:39:03.583008Z",
      "apogee_km": 550.7866001879911,
      "perigee_km": 548.2469223191156,
      "latitude_deg": 7.220970070270872e-05,
      "longitude_deg": -105.98277174205583,
      "height_km": 552.4959433465445,
      "semi_major_axis_km": 6927.653761253553,
      "eccentricity": 0.0001833,
      "inclination_deg": 97.6036,
      "raan_deg": 335.8066,
      "arg_perigee_deg": 86.2533,
      "mean_anomaly_deg": 273.8904,
      "mean_motion_rev_day": 15.05648172
    },
    {
      "epoch": "2026-04-04T14:58:51.324096Z",
      "apogee_km": 550.7908268354786,
      "perigee_km": 548.2345241052299,
      "latitude_deg": 5.8480742821879944e-05,
      "longitude_deg": -80.93194929538605,
      "height_km": 552.4146413667205,
      "semi_major_axis_km": 6927.649675470354,
      "eccentricity": 0.0001845,
      "inclination_deg": 97.6033,
      "raan_deg": 336.7234,
      "arg_perigee_deg": 82.8003,
      "mean_anomaly_deg": 277.3434,
      "mean_motion_rev_day": 15.05649504
    },
    {
      "epoch": "2026-04-05T14:54:21.351744Z",
      "apogee_km": 550.7442991402122,
      "perigee_km": 548.290523947644,
      "latitude_deg": -4.74429448355664e-05,
      "longitude_deg": -79.80821705435498,
      "height_km": 552.5317699572233,
      "semi_major_axis_km": 6927.654411543928,
      "eccentricity": 0.0001771,
      "inclination_deg": 97.6034,
      "raan_deg": 337.7048,
      "arg_perigee_deg": 87.7608,
      "mean_anomaly_deg": 272.3821,
      "mean_motion_rev_day": 15.0564796
    },
    {
      "epoch": "2026-04-05T14:54:21.352608Z",
      "apogee_km": 550.7442991402122,
      "perigee_km": 548.290523947644,
      "latitude_deg": 5.2315171523732354e-05,
      "longitude_deg": -79.80823390788417,
      "height_km": 552.531754870784,
      "semi_major_axis_km": 6927.654411543928,
      "eccentricity": 0.0001771,
      "inclination_deg": 97.6034,
      "raan_deg": 337.7048,
      "arg_perigee_deg": 87.7608,
      "mean_anomaly_deg": 272.3822,
      "mean_motion_rev_day": 15.0564796
    },
    {
      "epoch": "2026-04-06T03:39:57.050496Z",
      "apogee_km": 550.7561967232195,
      "perigee_km": 548.2508847980589,
      "latitude_deg": 5.895534001039206e-05,
      "longitude_deg": 88.79319181981717,
      "height_km": 552.4808963332773,
      "semi_major_axis_km": 6927.640540760639,
      "eccentricity": 0.00018082,
      "inclination_deg": 97.6037,
      "raan_deg": 338.229,
      "arg_perigee_deg": 86.1159,
      "mean_anomaly_deg": 274.0275,
      "mean_motion_rev_day": 15.05652482
    },
    {
      "epoch": "2026-04-07T09:58:15.565152Z",
      "apogee_km": 550.9294680367893,
      "perigee_km": 548.1068642159025,
      "latitude_deg": -3.779475589122138e-06,
      "longitude_deg": -5.783635568632155,
      "height_km": 552.53920101418,
      "semi_major_axis_km": 6927.655166126346,
      "eccentricity": 0.00020372,
      "inclination_deg": 97.6038,
      "raan_deg": 339.4739,
      "arg_perigee_deg": 88.3443,
      "mean_anomaly_deg": 271.8017,
      "mean_motion_rev_day": 15.05647714
    },
    {
      "epoch": "2026-04-08T14:40:51.508128Z",
      "apogee_km": 550.9632144307225,
      "perigee_km": 548.0872647285832,
      "latitude_deg": -5.1793892063471516e-05,
      "longitude_deg": -76.43337234928279,
      "height_km": 552.5639081606544,
      "semi_major_axis_km": 6927.662239579653,
      "eccentricity": 0.00020757,
      "inclination_deg": 97.6042,
      "raan_deg": 340.653,
      "arg_perigee_deg": 89.0807,
      "mean_anomaly_deg": 271.0657,
      "mean_motion_rev_day": 15.05645408
    },
    {
      "epoch": "2026-04-09T09:49:13.599552Z",
      "apogee_km": 551.2428310079686,
      "perigee_km": 547.692572150504,
      "latitude_deg": -2.8293164225523376e-05,
      "longitude_deg": -3.525055555968463,
      "height_km": 552.5681652492899,
      "semi_major_axis_km": 6927.6047015792365,
      "eccentricity": 0.00025624,
      "inclination_deg": 97.6017,
      "raan_deg": 341.4394,
      "arg_perigee_deg": 91.2748,
      "mean_anomaly_deg": 268.8772,
      "mean_motion_rev_day": 15.05664166
    },
    {
      "epoch": "2026-04-10T04:57:39.210048Z",
      "apogee_km": 551.1345537580846,
      "perigee_km": 547.9317532927062,
      "latitude_deg": -4.312110295635994e-05,
      "longitude_deg": 69.36826356109411,
      "height_km": 552.6519949885839,
      "semi_major_axis_km": 6927.670153525395,
      "eccentricity": 0.00023116,
      "inclination_deg": 97.6042,
      "raan_deg": 342.2255,
      "arg_perigee_deg": 92.058,
      "mean_anomaly_deg": 268.0911,
      "mean_motion_rev_day": 15.05642828
    },
    {
      "epoch": "2026-04-11T09:40:15.318048Z",
      "apogee_km": 551.1651464255401,
      "perigee_km": 547.8661982229796,
      "latitude_deg": -3.983133318133789e-05,
      "longitude_deg": -1.2827684304509275,
      "height_km": 552.5263067224845,
      "semi_major_axis_km": 6927.65267232426,
      "eccentricity": 0.0002381,
      "inclination_deg": 97.6045,
      "raan_deg": 343.404,
      "arg_perigee_deg": 88.2439,
      "mean_anomaly_deg": 271.906,
      "mean_motion_rev_day": 15.05648527
    }
  ]
}